{
    "type": "FeatureCollection",
    "name": "emmer-compascuum_small-area",
    "crs":
    {
        "type": "name",
        "properties":
        {
            "name": "urn:ogc:def:crs:EPSG::28992"
        }
    },
    "features":
    [
        {
            "type": "Feature",
            "properties":
            {
                "id": "emmer-compascuum_small-area",
                "source": "Hand-drawn (in QGIS) BBox area of interest over Emmer-Compascuum",
                "area_ha": 41.49,
                "width": 593.389675,
                "height": 848.582814,
                "angle": 46.913401,
                "area": 503540.28034400003,
                "perimeter": 2883.944978
            },
            "geometry":
            {
                "type": "Polygon",
                "coordinates":
                [
                    [
                        [
                            266880.082026395364664,
                            537656.140891114366241
                        ],
                        [
                            267285.428277241182514,
                            537222.775314173079096
                        ],
                        [
                            267905.1670364565216,
                            537802.444757059798576
                        ],
                        [
                            267499.820785610587336,
                            538235.810334001085721
                        ],
                        [
                            266880.082026395364664,
                            537656.140891114366241
                        ]
                    ]
                ]
            }
        }
    ]
}
