{"type": "FeatureCollection", "name": "emmer-compascuum_woonplaats", "crs": {"type": "name", "properties": {"name": "urn:ogc:def:crs:EPSG::28992"}}, "features": [{"type": "Feature", "properties": {"id": "emmer-compascuum_woonplaats", "woonplaats": "Emmer-Compascuum", "bag_woonplaats_id": "1989", "status": "Woonplaats aangewezen", "source": "PDOK BAG WFS v2_0 bag:woonplaats (EPSG:28992)"}, "geometry": {"type": "MultiPolygon", "coordinates": [[[[268474.275, 533880.052], [268477.482, 534000.0], [268483.922, 534240.878], [268488.889, 534426.662], [268491.73, 534532.9], [268498.966, 534805.57], [268503.823, 534988.621], [268505.818, 535063.809], [268507.889, 535141.866], [268509.44, 535200.314], [268509.919, 535218.364], [268511.311, 535270.795], [268511.963, 535295.37], [268513.959, 535370.6], [268515.978, 535446.663], [268519.652, 535585.136], [268520.042, 535599.814], [268524.071, 535751.603], [268524.08, 535751.927], [268528.092, 535903.067], [268528.109, 535903.695], [268529.088, 535940.569], [268530.666, 536000.0], [268532.151, 536055.965], [268537.536, 536258.83], [268540.199, 536359.157], [268544.3, 536513.65], [268548.26, 536662.8], [268548.39, 536667.761], [268554.33, 536893.663], [268558.31, 537045.053], [268558.77, 537062.53], [268560.329, 537121.793], [268562.018, 537186.016], [268563.24, 537232.45], [268580.795, 537273.015], [268593.0, 537301.22], [268596.889, 537310.191], [268620.641, 537364.985], [268656.759, 537448.304], [268691.674, 537528.847], [268691.717, 537528.946], [268725.628, 537607.176], [268740.729, 537642.045], [268742.916, 537647.094], [268743.114, 537647.551], [268760.202, 537687.008], [268784.248, 537742.534], [268808.093, 537797.595], [268808.488, 537798.507], [268828.041, 537843.655], [268830.65, 537849.68], [268863.872, 537926.21], [268895.904, 538000.0], [268895.937, 538000.076], [268930.817, 538080.425], [268965.29, 538159.837], [268982.412, 538199.28], [268984.57, 538204.25], [269006.697, 538255.238], [269034.559, 538319.441], [269072.855, 538407.689], [269102.83, 538476.76], [269070.76, 538490.58], [269105.679, 538566.73], [269107.77, 538571.29], [269138.08, 538558.3], [269162.83, 538615.314], [269169.599, 538630.907], [269187.916, 538673.101], [269187.993, 538673.278], [269239.739, 538792.477], [269240.07, 538793.24], [269242.137, 538798.0], [269274.447, 538872.419], [269308.041, 538949.796], [269329.837, 539000.0], [269342.19, 539028.453], [269358.677, 539066.427], [269376.908, 539108.419], [269377.43, 539109.62], [269410.863, 539186.604], [269445.199, 539265.668], [269464.73, 539310.64], [269486.232, 539360.188], [269496.583, 539384.039], [269538.141, 539479.799], [269538.24, 539480.026], [269539.722, 539483.442], [269554.926, 539518.476], [269581.47, 539579.64], [269581.945, 539580.737], [269615.538, 539658.285], [269684.014, 539816.362], [269752.423, 539974.283], [269754.31, 539978.64], [269763.618, 540000.0], [269838.31, 540171.41], [269858.747, 540218.387], [269912.997, 540343.086], [269915.824, 540349.585], [269918.65, 540356.08], [269557.017, 540356.848], [269276.632, 540357.444], [269275.114, 540357.447], [269255.899, 540357.488], [269254.201, 540357.492], [269238.408, 540357.526], [269236.25, 540357.531], [269227.746, 540357.549], [269224.536, 540357.555], [269221.524, 540357.564], [269156.588, 540357.743], [269145.025, 540357.723], [269143.272, 540357.727], [269138.123, 540357.739], [268761.113, 540358.539], [268759.598, 540358.542], [268758.56, 540358.544], [268585.544, 540359.096], [268555.426, 540359.192], [268546.079, 540359.222], [268543.941, 540355.969], [268537.602, 540346.323], [268535.518, 540346.455], [268533.5, 540346.583], [268533.083, 540346.61], [268530.815, 540346.754], [268529.508, 540348.515], [268524.157, 540355.723], [268525.306, 540363.53], [268528.241, 540367.166], [268528.219, 540368.17], [268535.952, 540397.265], [268524.204, 540404.595], [268519.326, 540410.436], [268517.74, 540414.666], [268515.596, 540424.709], [268508.1, 540432.255], [268499.607, 540439.337], [268494.407, 540443.084], [268494.395, 540443.093], [268474.723, 540362.046], [268473.958, 540358.954], [268456.603, 540288.783], [268455.778, 540285.447], [268455.724, 540285.338], [268453.691, 540281.199], [268453.226, 540280.252], [268452.131, 540279.036], [268449.767, 540276.411], [268449.585, 540276.269], [268447.194, 540274.399], [268445.522, 540273.092], [268441.936, 540270.674], [268425.454, 540261.386], [268419.375, 540257.963], [268418.601, 540257.489], [268407.178, 540250.498], [268406.965, 540250.368], [268401.418, 540246.972], [268400.029, 540246.122], [268399.284, 540245.666], [268398.857, 540245.404], [268304.087, 540187.4], [268241.122, 540149.441], [268223.758, 540138.702], [268188.834, 540117.919], [268180.6, 540113.019], [268178.476, 540111.755], [268173.257, 540108.649], [268170.049, 540106.597], [268162.527, 540101.824], [268159.508, 540099.904], [268143.821, 540089.927], [268024.765, 540018.396], [268015.568, 540012.75], [268001.553, 540004.287], [268000.0, 540003.348], [267994.465, 540000.0], [267939.976, 539967.046], [267850.668, 539912.876], [267841.847, 539907.562], [267748.216, 539851.153], [267746.811, 539850.319], [267683.645, 539812.846], [267674.491, 539807.333], [267670.053, 539804.66], [267566.504, 539742.492], [267467.631, 539682.301], [267358.534, 539616.244], [267355.472, 539614.374], [267353.69, 539613.286], [267347.235, 539609.343], [267173.682, 539504.173], [267170.649, 539502.331], [267170.536, 539502.263], [267170.27, 539502.103], [267162.669, 539497.489], [267162.407, 539497.33], [267162.16, 539497.18], [267161.931, 539497.041], [267160.985, 539496.468], [267159.854, 539495.782], [267137.345, 539482.216], [267005.489, 539402.11], [266923.094, 539352.115], [266932.411, 539339.441], [266899.125, 539318.369], [266858.081, 539292.382], [266856.45, 539291.348], [266859.733, 539287.259], [266863.768, 539282.441], [266868.381, 539277.156], [266891.036, 539251.624], [266916.039, 539223.658], [266899.389, 539203.916], [266882.057, 539189.049], [266878.071, 539185.913], [266869.798, 539178.448], [266864.91, 539174.454], [266857.917, 539169.594], [266855.83, 539168.33], [266851.97, 539166.319], [266847.717, 539164.446], [266841.638, 539162.468], [266832.96, 539160.853], [266829.278, 539160.572], [266826.108, 539160.515], [266819.945, 539160.881], [266817.216, 539161.246], [266812.794, 539162.11], [266807.417, 539163.634], [266795.335, 539168.502], [266786.282, 539172.046], [266782.188, 539173.123], [266774.77, 539174.493], [266769.46, 539175.031], [266764.862, 539175.207], [266757.782, 539174.953], [266751.481, 539174.28], [266747.865, 539173.699], [266739.525, 539171.589], [266732.444, 539168.865], [266728.226, 539166.771], [266724.202, 539164.414], [266717.587, 539157.827], [266715.004, 539151.249], [266713.776, 539148.146], [266691.885, 539093.071], [266691.763, 539091.145], [266683.107, 539097.79], [266679.46, 539095.57], [266678.64, 539086.937], [266676.98, 539082.063], [266674.109, 539078.312], [266657.795, 539066.959], [266628.17, 539048.633], [266596.027, 539028.827], [266594.29, 539027.097], [266591.038, 539024.166], [266585.009, 539019.941], [266568.042, 539008.698], [266554.138, 539000.0], [266524.847, 538981.677], [266520.19, 538978.762], [266467.315, 538945.665], [266428.104, 538921.121], [266365.727, 538881.79], [266364.674, 538881.125], [266364.245, 538880.855], [266329.999, 538859.262], [266316.896, 538850.954], [266382.346, 538744.85], [266178.147, 538616.84], [266180.117, 538613.646], [266224.783, 538622.603], [266234.244, 538594.724], [266556.299, 538649.06], [266557.857, 538639.822], [266575.098, 538537.635], [266458.517, 538518.153], [265999.826, 538440.386], [265939.059, 538430.237], [265886.744, 538421.5], [265836.264, 538412.964], [265824.93, 538418.432], [265825.46, 538396.946], [265829.678, 538305.778], [265829.567, 538298.091], [265828.499, 538290.463], [265826.086, 538282.05], [265822.487, 538273.83], [265818.558, 538267.393], [265783.801, 538220.504], [265781.15, 538216.927], [265776.002, 538210.973], [265771.573, 538206.015], [265767.024, 538201.778], [265763.095, 538198.6], [265760.514, 538197.005], [265758.829, 538196.479], [265757.072, 538196.28], [265755.129, 538196.458], [265748.175, 538192.5], [265741.064, 538189.147], [265739.67, 538188.49], [265729.959, 538184.668], [265719.799, 538181.665], [265705.119, 538177.88], [265679.075, 538173.265], [265651.123, 538167.822], [265558.874, 538150.602], [265553.24, 538149.55], [265474.365, 538135.618], [265470.171, 538134.952], [265466.829, 538134.326], [265463.868, 538133.76], [265460.288, 538145.966], [265450.007, 538200.0], [265445.517, 538223.6], [265444.142, 538227.437], [265442.091, 538230.803], [265439.417, 538233.402], [265436.835, 538235.197], [265436.134, 538235.691], [265432.65, 538237.181], [265428.744, 538238.06], [265424.389, 538238.287], [265343.557, 538224.897], [265332.857, 538222.867], [265319.427, 538220.596], [265297.96, 538216.965], [265211.697, 538202.377], [265055.244, 538175.918], [265043.794, 538174.423], [264753.03, 538124.311], [264739.515, 538121.933], [264460.544, 538073.116], [264458.204, 538072.707], [264441.843, 538070.661], [264441.319, 538073.616], [264302.227, 538048.875], [264073.125, 538007.235], [264065.804, 538005.904], [264066.256, 538002.937], [264057.663, 538001.375], [264050.198, 538000.0], [264000.0, 537990.754], [263775.62, 537949.427], [263771.072, 537948.589], [263553.744, 537907.851], [263539.28, 537904.65], [263443.205, 537887.033], [263364.13, 537872.085], [263271.403, 537854.575], [263256.441, 537850.91], [262892.298, 537783.155], [262886.449, 537781.913], [262859.254, 537776.136], [262863.519, 537786.476], [262863.98, 537790.048], [262863.667, 537793.872], [262861.593, 537802.216], [262859.125, 537809.762], [262851.917, 537828.61], [262796.866, 537963.442], [262781.739, 538000.0], [262719.059, 538151.485], [262718.167, 538158.127], [262717.771, 538159.178], [262550.784, 538125.546], [262557.056, 538098.154], [262567.463, 538053.137], [262578.172, 538000.0], [262583.486, 537973.636], [262607.688, 537836.745], [262610.824, 537814.415], [262626.531, 537732.964], [262604.27, 537727.025], [262602.403, 537726.527], [262601.728, 537728.555], [262548.5, 538000.0], [262544.268, 538021.58], [262439.209, 538000.0], [262395.136, 537990.947], [262143.716, 537940.009], [262079.027, 537926.903], [262000.0, 537910.892], [261948.559, 537900.47], [261880.17, 537886.301], [261875.414, 537885.316], [261932.456, 537594.262], [261931.431, 537594.113], [261929.744, 537593.726], [261913.022, 537591.219], [261913.417, 537592.612], [261913.333, 537594.092], [261913.422, 537597.738], [261899.636, 537666.078], [261896.439, 537682.46], [261552.936, 537612.31], [261549.598, 537611.628], [261345.306, 537569.908], [261343.789, 537569.569], [261332.428, 537567.278], [261328.146, 537566.404], [261281.243, 537556.825], [261215.138, 537543.325], [260850.099, 537468.778], [260776.613, 537453.771], [260724.02, 537443.029], [260739.989, 537362.699], [260653.165, 537345.305], [260605.85, 537335.908], [260582.408, 537331.928], [260580.443, 537331.239], [260578.216, 537330.557], [260570.088, 537328.597], [260561.179, 537325.92], [260553.08, 537322.986], [260546.927, 537320.005], [260540.517, 537316.187], [260535.351, 537311.55], [260530.897, 537307.63], [260493.131, 537300.091], [260491.605, 537299.786], [260484.061, 537365.366], [260481.253, 537389.778], [260480.658, 537394.952], [260477.214, 537394.262], [260468.527, 537392.524], [260269.167, 537352.629], [260200.0, 537338.788], [260176.458, 537334.077], [260124.866, 537323.753], [260175.532, 537062.857], [260181.759, 537030.795], [260188.948, 537000.0], [260194.814, 536974.87], [260200.0, 536952.654], [260204.6, 536932.948], [260214.738, 536880.773], [260233.1, 536786.276], [260250.083, 536698.88], [260252.254, 536687.706], [260253.561, 536681.912], [260254.808, 536676.727], [260256.518, 536670.484], [260258.408, 536664.402], [260260.48, 536658.45], [260262.878, 536652.256], [260265.453, 536646.237], [260268.574, 536639.625], [260271.449, 536634.062], [260275.122, 536627.549], [260279.557, 536620.405], [260284.187, 536613.632], [260288.739, 536607.539], [260293.956, 536601.134], [260296.2, 536598.545], [260345.717, 536604.929], [260408.042, 536283.494], [260437.671, 536286.223], [260437.404, 536188.576], [260328.582, 536179.291], [260341.388, 536137.272], [260342.415, 536139.641], [260344.124, 536141.695], [260347.027, 536143.459], [260354.311, 536145.658], [260362.679, 536147.928], [260371.746, 536150.606], [260380.757, 536152.242], [260386.154, 536153.321], [260393.85, 536154.267], [260404.863, 536155.491], [260422.278, 536157.204], [260436.12, 536158.618], [260447.389, 536159.864], [260458.931, 536161.517], [260473.915, 536164.066], [260495.15, 536167.103], [260522.385, 536170.288], [260529.351, 536170.749], [260534.207, 536171.459], [260542.837, 536172.214], [260566.209, 536174.055], [260611.589, 536178.086], [260653.278, 536181.375], [260702.893, 536185.047], [260708.289, 536185.234], [260749.209, 536188.851], [260814.09, 536193.885], [260862.883, 536198.084], [260914.857, 536202.255], [260931.039, 536203.553], [260936.428, 536203.994], [260960.565, 536205.879], [260989.338, 536208.628], [261006.285, 536209.746], [261013.13, 536210.216], [261016.403, 536210.321], [261019.387, 536210.275], [261022.941, 536209.89], [261026.798, 536209.104], [261030.743, 536207.973], [261034.081, 536206.558], [261039.464, 536203.598], [261042.388, 536202.09], [261045.792, 536200.869], [261049.128, 536199.984], [261051.891, 536199.288], [261052.988, 536198.741], [261067.953, 536199.214], [261068.069, 536185.505], [261070.209, 536178.532], [261074.493, 536168.315], [261075.9, 536162.61], [261078.819, 536113.621], [261077.95, 536102.96], [261082.767, 536004.207], [261082.972, 536000.0], [261088.409, 535888.548], [261106.774, 535500.0], [261111.58, 535398.32], [261112.498, 535395.276], [261114.24, 535392.714], [261100.293, 535376.803], [261129.54, 535373.428], [261149.134, 535371.725], [261503.381, 535342.624], [261520.248, 535340.791], [261535.665, 535029.731], [261535.798, 535026.754], [261536.54, 535000.0], [261536.62, 534997.103], [261561.654, 534500.0], [261566.428, 534405.199], [261569.132, 534359.986], [261566.744, 534359.843], [261570.257, 534304.148], [261570.737, 534293.184], [261572.445, 534268.728], [261573.393, 534256.936], [261574.851, 534230.079], [261576.046, 534205.232], [261576.486, 534205.218], [261575.903, 534202.856], [261574.94, 534199.854], [261574.497, 534199.386], [261573.233, 534198.048], [261571.273, 534195.994], [261569.068, 534194.819], [261566.675, 534193.708], [261564.035, 534193.225], [261555.852, 534189.887], [261512.744, 534191.257], [261488.86, 534195.924], [261489.313, 534195.026], [261489.475, 534194.707], [261587.865, 534000.0], [261840.528, 533500.0], [261892.984, 533396.194], [262000.0, 533184.417], [262067.792, 533050.262], [262092.789, 533000.0], [262114.578, 532956.187], [262203.009, 532953.911], [262206.644, 532953.814], [262206.218, 532951.348], [262204.473, 532945.507], [262234.956, 532944.782], [262231.772, 532953.146], [262340.629, 532950.362], [262365.817, 532945.48], [262458.08, 532942.953], [262465.343, 532944.404], [262471.441, 532944.711], [262558.797, 532942.514], [263128.199, 532928.197], [263127.5, 532926.296], [263126.432, 532924.574], [263125.04, 532923.103], [263128.049, 532923.026], [263138.342, 532922.762], [263141.74, 532922.675], [263152.337, 532922.405], [263152.498, 532927.554], [263820.988, 532907.353], [263912.23, 532904.596], [263911.632, 532924.617], [263914.956, 532996.817], [263915.103, 533000.0], [263919.499, 533095.479], [263924.098, 533195.373], [263928.697, 533295.256], [263933.296, 533395.151], [263937.895, 533495.045], [263938.124, 533500.024], [263938.339, 533513.056], [263939.017, 533535.828], [263939.165, 533549.715], [263938.455, 533561.541], [263937.506, 533570.739], [263936.848, 533575.953], [263936.401, 533577.611], [263935.815, 533578.929], [263935.185, 533579.871], [263934.284, 533580.567], [263933.322, 533581.252], [263932.313, 533581.789], [263931.032, 533582.365], [263931.665, 533595.961], [263854.739, 533599.336], [263855.228, 533609.846], [263955.169, 533606.254], [263955.25, 533607.988], [264000.0, 533605.703], [264046.506, 533603.328], [264079.332, 533601.465], [264078.063, 533555.728], [264158.016, 533552.244], [264221.657, 533548.863], [264230.708, 533548.382], [264450.363, 533537.276], [264635.437, 533527.918], [264700.495, 533524.034], [264705.277, 533523.763], [264710.572, 533523.906], [264717.271, 533524.1], [264723.557, 533524.842], [264730.3, 533525.675], [264737.101, 533526.829], [264744.074, 533528.026], [264750.873, 533529.637], [264758.018, 533532.105], [264764.369, 533534.77], [264771.336, 533538.31], [264777.106, 533541.499], [264783.74, 533545.638], [264788.878, 533549.587], [264793.212, 533553.174], [264798.914, 533558.057], [264806.469, 533565.727], [264810.687, 533570.529], [264813.941, 533574.375], [264817.553, 533578.768], [264821.358, 533584.004], [264824.951, 533589.074], [264831.74, 533600.273], [264834.859, 533607.825], [264836.99, 533614.936], [264838.239, 533620.991], [264838.767, 533626.966], [264839.537, 533635.673], [264840.819, 533650.178], [264908.742, 533647.091], [264908.757, 533647.424], [264952.326, 533645.804], [265001.134, 533643.35], [265022.373, 533642.282], [265030.358, 533638.64], [265032.754, 533637.547], [265036.844, 533635.082], [265040.155, 533632.124], [265041.114, 533630.875], [265041.408, 533630.492], [265061.318, 533635.742], [265131.463, 533650.217], [265183.518, 533660.959], [265184.861, 533664.531], [265141.34, 533714.277], [265162.368, 533711.3], [265883.749, 533748.254], [265897.146, 533748.941], [266000.0, 533754.21], [266571.661, 533783.495], [266580.765, 533783.961], [266629.395, 533786.452], [266768.75, 533793.59], [266828.788, 533797.94], [266897.328, 533801.349], [266930.141, 533802.981], [266940.301, 533802.492], [266961.422, 533803.536], [267634.573, 533836.495], [267658.092, 533841.248], [267855.551, 533850.605], [267881.011, 533851.123], [268000.0, 533856.917], [268474.275, 533880.052]]]]}}]}