{
  "type": "FeatureCollection",
  "name": "emmer_compascuum_area",
  "crs": {
    "type": "name",
    "properties": {
      "name": "urn:ogc:def:crs:EPSG::28992"
    }
  },
  "features": [
    {
      "type": "Feature",
      "properties": {
        "id": "emmer_compascuum_area",
        "source": "extracted from inputs/pv_panels/grid2.gpkg fid=1 (CC-BY Daan Schlosser)",
        "area_ha": 41.49
      },
      "geometry": {
        "type": "MultiPolygon",
        "coordinates": [
          [
            [
              [
                266920.4344725917,
                537628.8531215686
              ],
              [
                267150.61624136486,
                537841.11654906
              ],
              [
                267116.1578927461,
                537876.9532316234
              ],
              [
                267435.931367928,
                538176.051697634
              ],
              [
                267872.8632284135,
                537836.9815472257
              ],
              [
                267766.7315146678,
                537672.9598078005
              ],
              [
                267562.7380908449,
                537511.6947362649
              ],
              [
                267502.0913972759,
                537431.7513674693
              ],
              [
                267311.8813129005,
                537431.7513674693
              ],
              [
                267295.3413055635,
                537404.1846885744
              ],
              [
                267168.53458264656,
                537398.6713527954
              ],
              [
                267049.99786339817,
                537474.4797197566
              ],
              [
                266920.4344725917,
                537628.8531215686
              ]
            ]
          ]
        ]
      }
    }
  ]
}